*******************************************************************************
 Revised: April 12, 2021                 Earth                              399
 
 GEOPHYSICAL PROPERTIES (revised May 9, 2022):
  Vol. Mean Radius (km)    = 6371.01+-0.02   Mass x10^24 (kg)= 5.97219+-0.0006
  Equ. radius, km          = 6378.137        Mass layers:
  Polar axis, km           = 6356.752          Atmos         = 5.1   x 10^18 kg
  Flattening               = 1/298.257223563   oceans        = 1.4   x 10^21 kg
  Density, g/cm^3          = 5.51              crust         = 2.6   x 10^22 kg
  J2 (IERS 2010)           = 0.00108262545     mantle        = 4.043 x 10^24 kg
  g_p, m/s^2  (polar)      = 9.8321863685      outer core    = 1.835 x 10^24 kg
  g_e, m/s^2  (equatorial) = 9.7803267715      inner core    = 9.675 x 10^22 kg
  g_o, m/s^2               = 9.82022         Fluid core rad  = 3480 km
  GM, km^3/s^2             = 398600.435436   Inner core rad  = 1215 km
  GM 1-sigma, km^3/s^2     =      0.0014     Escape velocity = 11.186 km/s
  Rot. Rate (rad/s)        = 0.00007292115   Surface area:
  Mean sidereal day, hr    = 23.9344695944     land          = 1.48 x 10^8 km
  Mean solar day 2000.0, s = 86400.002         sea           = 3.62 x 10^8 km
  Mean solar day 1820.0, s = 86400.0         Love no., k2    = 0.299
  Moment of inertia        = 0.3308          Atm. pressure   = 1.0 bar
  Mean surface temp (Ts), K= 287.6           Volume, km^3    = 1.08321 x 10^12
  Mean effect. temp (Te), K= 255             Magnetic moment = 0.61 gauss Rp^3
  Geometric albedo         = 0.367           Vis. mag. V(1,0)= -3.86
  Solar Constant (W/m^2)   = 1367.6 (mean), 1414 (perihelion), 1322 (aphelion)
 HELIOCENTRIC ORBIT CHARACTERISTICS:
  Obliquity to orbit, deg  = 23.4392911  Sidereal orb period  = 1.0000174 y
  Orbital speed, km/s      = 29.79       Sidereal orb period  = 365.25636 d
  Mean daily motion, deg/d = 0.9856474   Hill's sphere radius = 234.9       
*******************************************************************************


*******************************************************************************
Ephemeris / WWW_USER Mon Oct  3 12:20:12 2022 Pasadena, USA      / Horizons
*******************************************************************************
Target body name: Earth (399)                     {source: DE441}
Center body name: Solar System Barycenter (0)     {source: DE441}
Center-site name: BODY CENTER
*******************************************************************************
Start time      : A.D. 2025-Jul-23 00:00:00.0000 TDB
Stop  time      : A.D. 2025-Sep-23 00:00:00.0000 TDB
Step-size       : 1440 minutes
*******************************************************************************
Center geodetic : 0.00000000,0.00000000,0.0000000 {E-lon(deg),Lat(deg),Alt(km)}
Center cylindric: 0.00000000,0.00000000,0.0000000 {E-lon(deg),Dxy(km),Dz(km)}
Center radii    : (undefined)                                                  
Output units    : KM-S
Output type     : GEOMETRIC cartesian states
Output format   : 2 (position and velocity)
Reference frame : Ecliptic of J2000.0
*******************************************************************************
JDTDB
   X     Y     Z
   VX    VY    VZ
*******************************************************************************
$$SOE
2460879.500000000 = A.D. 2025-Jul-23 00:00:00.0000 TDB 
 X = 7.550294478470525E+07 Y =-1.323440482175927E+08 Z = 3.006178698627651E+04
 VX= 2.532325101948306E+01 VY= 1.481068714181570E+01 VZ=-9.355611094079563E-04
2460880.500000000 = A.D. 2025-Jul-24 00:00:00.0000 TDB 
 X = 7.768000070561442E+07 Y =-1.310457739099600E+08 Z = 2.999087986650318E+04
 VX= 2.507024669803781E+01 VY= 1.524123320739790E+01 VZ=-7.110235078480187E-04
2460881.500000000 = A.D. 2025-Jul-25 00:00:00.0000 TDB 
 X = 7.983485840320037E+07 Y =-1.297104927025784E+08 Z = 2.993781903783232E+04
 VX= 2.480943107374148E+01 VY= 1.566728121564919E+01 VZ=-5.246442639945670E-04
2460882.500000000 = A.D. 2025-Jul-26 00:00:00.0000 TDB 
 X = 8.196685078770083E+07 Y =-1.283386048047086E+08 Z = 2.989880446175486E+04
 VX= 2.454099109779677E+01 VY= 1.608857086613750E+01 VZ=-3.873021722045067E-04
2460883.500000000 = A.D. 2025-Jul-27 00:00:00.0000 TDB 
 X = 8.407532824566947E+07 Y =-1.269305308332802E+08 Z = 2.986929850509018E+04
 VX= 2.426514097971617E+01 VY= 1.650489076068258E+01 VZ=-3.051852291564572E-04
2460884.500000000 = A.D. 2025-Jul-28 00:00:00.0000 TDB 
 X = 8.615966014472601E+07 Y =-1.254867075415425E+08 Z = 2.984442146691680E+04
 VX= 2.398210296744935E+01 VY= 1.691607799381348E+01 VZ=-2.801403672352265E-04
2460885.500000000 = A.D. 2025-Jul-29 00:00:00.0000 TDB 
 X = 8.821923485381293E+07 Y =-1.240075839188463E+08 Z = 2.981928993476927E+04
 VX= 2.369209275439579E+01 VY= 1.732201057290838E+01 VZ=-3.105845486466308E-04
2460886.500000000 = A.D. 2025-Jul-30 00:00:00.0000 TDB 
 X = 9.025345878042296E+07 Y =-1.224936181126029E+08 Z = 2.978926612213999E+04
 VX= 2.339531140219415E+01 VY= 1.772259664473214E+01 VZ=-3.925925870076341E-04
2460887.500000000 = A.D. 2025-Jul-31 00:00:00.0000 TDB 
 X = 9.226175497798747E+07 Y =-1.209452752853155E+08 Z = 2.975011724364758E+04
 VX= 2.309194322586555E+01 VY= 1.811776412050076E+01 VZ=-5.208516394832330E-04
2460888.500000000 = A.D. 2025-Aug-01 00:00:00.0000 TDB 
 X = 9.424356176216248E+07 Y =-1.193630262656658E+08 Z = 2.969810465561599E+04
 VX= 2.278215775251646E+01 VY= 1.850745291169780E+01 VZ=-6.893170205550803E-04
2460889.500000000 = A.D. 2025-Aug-02 00:00:00.0000 TDB 
 X = 9.619833159457876E+07 Y =-1.177473467242560E+08 Z = 2.963003091655672E+04
 VX= 2.246611361647837E+01 VY= 1.889161059041466E+01 VZ=-8.915324294438420E-04
2460890.500000000 = A.D. 2025-Aug-03 00:00:00.0000 TDB 
 X = 9.812553032032096E+07 Y =-1.160987165787499E+08 Z = 2.954327235736698E+04
 VX= 2.214396259209579E+01 VY= 1.927019134563061E+01 VZ=-1.120656023196887E-03
2460891.500000000 = A.D. 2025-Aug-04 00:00:00.0000 TDB 
 X = 1.000246367100334E+08 Y =-1.144176193679959E+08 Z = 2.943581938008964E+04
 VX= 2.181585242261649E+01 VY= 1.964315761716862E+01 VZ=-1.369270073952933E-03
2460892.500000000 = A.D. 2025-Aug-05 00:00:00.0000 TDB 
 X = 1.018951421579108E+08 Y =-1.127045414000629E+08 Z = 2.930633917640895E+04
 VX= 2.148192745830569E+01 VY= 2.001048353063690E+01 VZ=-1.629069527296245E-03
2460893.500000000 = A.D. 2025-Aug-06 00:00:00.0000 TDB 
 X = 1.037365503132641E+08 Y =-1.109599705651316E+08 Z = 2.915426658157259E+04
 VX= 2.114232638374347E+01 VY= 2.037215900702467E+01 VZ=-1.890543025197644E-03
2460894.500000000 = A.D. 2025-Aug-07 00:00:00.0000 TDB 
 X = 1.055483763747102E+08 Y =-1.091843948156931E+08 Z = 2.897991791842878E+04
 VX= 2.079717665976623E+01 VY= 2.072819307700328E+01 VZ=-2.142784977400503E-03
2460895.500000000 = A.D. 2025-Aug-08 00:00:00.0000 TDB 
 X = 1.073301457684497E+08 Y =-1.073783004594434E+08 Z = 2.878460972137749E+04
 VX= 2.044658594265230E+01 VY= 2.107861457871373E+01 VZ=-2.373597448483089E-03
2460896.500000000 = A.D. 2025-Aug-09 00:00:00.0000 TDB 
 X = 1.090813919968579E+08 Y =-1.055421705737353E+08 Z = 2.857075072482973E+04
 VX= 2.009063177968137E+01 VY= 2.142346835953295E+01 VZ=-2.570027068773406E-03
2460897.500000000 = A.D. 2025-Aug-10 00:00:00.0000 TDB 
 X = 1.108016536096173E+08 Y =-1.036764839911272E+08 Z = 2.834186588345468E+04
 VX= 1.972935211922559E+01 VY= 2.176280575452689E+01 VZ=-2.719401020253365E-03
2460898.500000000 = A.D. 2025-Aug-11 00:00:00.0000 TDB 
 X = 1.124904705106457E+08 Y =-1.017817153493592E+08 Z = 2.810251201072335E+04
 VX= 1.936274000287041E+01 VY= 2.209666970387890E+01 VZ=-2.810768222099469E-03
2460899.500000000 = A.D. 2025-Aug-12 00:00:00.0000 TDB 
 X = 1.141473800998225E+08 Y =-9.985833657571769E+07 Z = 2.785806091092527E+04
 VX= 1.899074543216370E+01 VY= 2.242507702417502E+01 VZ=-2.836465245341202E-03
2460900.500000000 = A.D. 2025-Aug-13 00:00:00.0000 TDB 
 X = 1.157719139345745E+08 Y =-9.790681987887946E+07 Z = 2.761435594464093E+04
 VX= 1.861328549257061E+01 VY= 2.274800199891268E+01 VZ=-2.793412905091941E-03
2460901.500000000 = A.D. 2025-Aug-14 00:00:00.0000 TDB 
 X = 1.173635955726578E+08 Y =-9.592764194653076E+07 Z = 2.737728122447431E+04
 VX= 1.823026107874713E+01 VY= 2.306536546764103E+01 VZ=-2.683797937672594E-03
2460902.500000000 = A.D. 2025-Aug-15 00:00:00.0000 TDB 
 X = 1.189219400143108E+08 Y =-9.392128875405897E+07 Z = 2.715230456378311E+04
 VX= 1.784157648254850E+01 VY= 2.337703176621235E+01 VZ=-2.514996024970628E-03
2460903.500000000 = A.D. 2025-Aug-16 00:00:00.0000 TDB 
 X = 1.204464548119901E+08 Y =-9.188826029875271E+07 Z = 2.694405713963881E+04
 VX= 1.744715781111481E+01 VY= 2.368281327379146E+01 VZ=-2.298830938951113E-03
2460904.500000000 = A.D. 2025-Aug-17 00:00:00.0000 TDB 
 X = 1.219366426174427E+08 Y =-8.982907468477210E+07 Z = 2.675599749240652E+04
 VX= 1.704696755113188E+01 VY= 2.398248046887614E+01 VZ=-2.050406573276931E-03
2460905.500000000 = A.D. 2025-Aug-18 00:00:00.0000 TDB 
 X = 1.233920047836922E+08 Y =-8.774427119158120E+07 Z = 2.659018611621857E+04
 VX= 1.664101440313917E+01 VY= 2.427577503571674E+01 VZ=-1.786748410644634E-03
2460906.500000000 = A.D. 2025-Aug-19 00:00:00.0000 TDB 
 X = 1.248120456194268E+08 Y =-8.563441214431167E+07 Z = 2.644717984341085E+04
 VX= 1.622935862466016E+01 VY= 2.456242428033351E+01 VZ=-1.525406678879904E-03
2460907.500000000 = A.D. 2025-Aug-20 00:00:00.0000 TDB 
 X = 1.261962769247733E+08 Y =-8.350008351725048E+07 Z = 2.632604562857375E+04
 VX= 1.581211322905284E+01 VY= 2.484215592433649E+01 VZ=-1.283099402307641E-03
2460908.500000000 = A.D. 2025-Aug-21 00:00:00.0000 TDB 
 X = 1.275442224514340E+08 Y =-8.134189426871058E+07 Z = 2.622448747340962E+04
 VX= 1.538944100212244E+01 VY= 2.511471252789167E+01 VZ=-1.074464638758599E-03
2460909.500000000 = A.D. 2025-Aug-22 00:00:00.0000 TDB 
 X = 1.288554219181620E+08 Y =-7.916047448667696E+07 Z = 2.613907259734347E+04
 VX= 1.496154719733306E+01 VY= 2.537986434383115E+01 VZ=-9.110336196958002E-04
